INMARSAT GX5            
1 44801U 19080B   26166.90263749  .00000076  00000+0  00000+0 0  9997
2 44801   0.0346 349.5729 0002235 111.4679 139.1188  1.00272433  6775
JCSAT-18 (KACIFIC 1)    
1 44868U 19091A   26166.78781051 -.00000200  00000+0  00000+0 0  9999
2 44868   0.0156 257.9159 0000448   5.6966  74.0536  1.00269633 23998
ELEKTRO-L 3             
1 44903U 19095A   26167.02086821 -.00000096  00000+0  00000+0 0  9997
2 44903   0.2536  81.4859 0000925 350.8830 275.3955  1.00271449 23690
SHIJIAN-20 (SJ-20)      
1 44910U 19097A   26166.26794126  .00000135  00000+0  00000+0 0  9999
2 44910   4.9142  75.0856 0013880  55.0931 274.7312  1.00277558 23673
TJS-5                   
1 44978U 20002A   26166.42295498 -.00000339  00000+0  00000+0 0  9994
2 44978   0.0166 303.4413 0007341 103.0860 116.9474  1.00269486 23696
GSAT-30                 
1 45026U 20005A   26166.84581825 -.00000163  00000+0  00000+0 0  9995
2 45026   0.0703  97.0360 0003340 347.6764 206.8933  1.00271149 23495
EUTELSAT KONNECT        
1 45027U 20005B   26166.03030797  .00000055  00000+0  00000+0 0  9993
2 45027   0.0725  97.8075 0001524 122.8326  60.8276  1.00271655 24312
JCSAT-17                
1 45245U 20013A   26166.85630497 -.00000316  00000+0  00000+0 0  9998
2 45245   5.3924 356.8617 0002334  85.3626 266.1979  1.00270429 23216
GEO-KOMPSAT-2B          
1 45246U 20013B   26166.95226015 -.00000343  00000+0  00000+0 0  9997
2 45246   0.0103 302.8330 0000769 326.5265 105.9512  1.00271217 23264
BEIDOU-3 G2             
1 45344U 20017A   26166.70268205 -.00000141  00000+0  00000+0 0  9996
2 45344   2.8605  47.3098 0002044  32.0684 157.6480  1.00272096 23246
AEHF-6 (USA 298)        
1 45465U 20022B   26166.85673830 -.00000295  00000+0  00000+0 0  9996
2 45465   2.5511 301.1421 0043192  17.0036  32.1918  1.00271729 23006
BEIDOU-3 G3             
1 45807U 20040A   26166.92246078 -.00000354  00000+0  00000+0 0  9990
2 45807   2.4433  67.4355 0002399 334.9904 304.3798  1.00267140 22051
APSTAR-6D               
1 45863U 20045A   26165.71525685 -.00000311  00000+0  00000+0 0  9990
2 45863   0.0526 103.4417 0002099 344.7575 206.3375  1.00270603 21835
KOREASAT 116            
1 45920U 20048A   26166.85240495 -.00000361  00000+0  00000+0 0  9991
2 45920   0.0271 291.3372 0000720 187.6453 208.2208  1.00269545 21627
EXPRESS 103             
1 45985U 20053A   26166.77715045 -.00000279  00000+0  00000+0 0  9995
2 45985   0.0180 325.5852 0000097 357.1828 317.5527  1.00269048 21634
EXPRESS 80              
1 45986U 20053B   26166.04629499 -.00000131  00000+0  00000+0 0  9990
2 45986   0.0196 303.9938 0001636 229.4906 186.5177  1.00271885 21610
BSAT-4B                 
1 46112U 20056A   26164.49851758  .00000000  00000+0  00000+0 0  9991
2 46112   0.0192  98.5475 0003746  17.2668  75.2961  1.00268721 21354
MEV-2                   
1 46113U 20056B   26166.68656492 -.00000009  00000+0  00000+0 0  9993
2 46113   0.0116 317.0110 0000298 255.8494 297.2601  1.00272857 80539
GALAXY 30 (G-30)        
1 46114U 20056C   26166.66203815  .00000039  00000+0  00000+0 0  9991
2 46114   0.0172  10.6110 0002072  74.4375 292.2233  1.00270817 21279
GAOFEN-13 01            
1 46610U 20071A   26166.92410745 -.00000362  00000+0  00000+0 0  9990
2 46610   0.5185  84.8580 0041392 123.7369 146.5038  1.00271117 20909
TIANTONG-1 2            
1 46916U 20082A   26166.92540745 -.00000354  00000+0  00000+0 0  9996
2 46916   0.7921 327.3638 0000938 101.5755 293.3472  1.00269869 20646
LUCAS (JDRS-1)          
1 47202U 20089A   26166.76588547 -.00000234  00000+0  00000+0 0  9993
2 47202   0.0073 307.7415 0002032 127.2716 195.5531  1.00270660 20404
SXM-7                   
1 47240U 20096A   26165.95705219 -.00000200  00000+0  00000+0 0  9993
2 47240   0.0312  98.3690 0003650  27.4675  36.8000  1.00271395  7423
CMS-01                  
1 47256U 20099A   26166.84581825 -.00000163  00000+0  00000+0 0  9995
2 47256   0.0952  95.1690 0003779 180.8072  15.6337  1.00270779 20183
TURKSAT 5A              
1 47306U 21001A   26166.83548345  .00000155  00000+0  00000+0 0  9994
2 47306   0.0171  52.3940 0000143 206.3303 337.0955  1.00270585 19953
TIANTONG-1 3            
1 47321U 21003A   26166.91682742 -.00000153  00000+0  00000+0 0  9991
2 47321   1.7581 339.2097 0003007 111.2147 225.3686  1.00270633 19948
TJS-6                   
1 47613U 21010A   26166.79344387  .00000044  00000+0  00000+0 0  9997
2 47613   0.2551 264.3417 0002915 225.0071 238.8596  1.00268974 19791
SBIRS GEO-5 (USA 315)   
1 48618U 21042A   26166.91912882 -.00000266  00000+0  00000+0 0  9990
2 48618   5.1051 329.1210 0001248 121.9207 237.8511  1.00270731 18755
FENGYUN 4B              
1 48808U 21047A   26166.92133410 -.00000330  00000+0  00000+0 0  9991
2 48808   0.1502  77.3608 0005922 275.1519 347.9671  1.00277147 18552
SXM-8                   
1 48838U 21049A   26166.31344440 -.00000202  00000+0  00000+0 0  9994
2 48838   0.0179  12.6016 0004989  18.1510 260.5396  1.00271311 18569
TIANLIAN 1-05           
1 49011U 21063A   26166.83271010  .00000108  00000+0  00000+0 0  9997
2 49011   1.5907  80.7162 0000478 324.9514 175.0229  1.00271514 18062
STAR ONE D2             
1 49055U 21069A   26166.17384541  .00000000  00000+0  00000+0 0  9993
2 49055   0.0162 337.8384 0002057 134.2817 143.8251  1.00270847 17922
