OBJECT_NAME,OBJECT_ID,EPOCH,MEAN_MOTION,ECCENTRICITY,INCLINATION,RA_OF_ASC_NODE,ARG_OF_PERICENTER,MEAN_ANOMALY,EPHEMERIS_TYPE,CLASSIFICATION_TYPE,NORAD_CAT_ID,ELEMENT_SET_NO,REV_AT_EPOCH,BSTAR,MEAN_MOTION_DOT,MEAN_MOTION_DDOT
INMARSAT GX5,2019-080B,2026-06-15T21:39:47.879136,1.00272433,.00022358,0.0346,349.5729,111.4679,139.1188,0,U,44801,999,677,0,.76E-6,0
JCSAT-18 (KACIFIC 1),2019-091A,2026-06-15T18:54:26.828064,1.00269633,.00004484,0.0156,257.9159,5.6966,74.0536,0,U,44868,999,2399,0,-.2E-5,0
ELEKTRO-L 3,2019-095A,2026-06-16T00:30:03.013344,1.00271449,.00009256,0.2536,81.4859,350.8830,275.3955,0,U,44903,999,2369,0,-.96E-6,0
SHIJIAN-20 (SJ-20),2019-097A,2026-06-15T06:25:50.124864,1.00277558,.001388,4.9142,75.0856,55.0931,274.7312,0,U,44910,999,2367,0,.135E-5,0
TJS-5,2020-002A,2026-06-15T10:09:03.310272,1.00269486,.0007341,0.0166,303.4413,103.0860,116.9474,0,U,44978,999,2369,0,-.339E-5,0
GSAT-30,2020-005A,2026-06-15T20:17:58.696800,1.00271149,.00033403,0.0703,97.0360,347.6764,206.8933,0,U,45026,999,2349,0,-.163E-5,0
EUTELSAT KONNECT,2020-005B,2026-06-15T00:43:38.608608,1.00271655,.00015245,0.0725,97.8075,122.8326,60.8276,0,U,45027,999,2431,0,.55E-6,0
JCSAT-17,2020-013A,2026-06-15T20:33:04.749408,1.00270429,.00023347,5.3924,356.8617,85.3626,266.1979,0,U,45245,999,2321,0,-.316E-5,0
GEO-KOMPSAT-2B,2020-013B,2026-06-15T22:51:15.276960,1.00271217,.00007694,0.0103,302.8330,326.5265,105.9512,0,U,45246,999,2326,0,-.343E-5,0
BEIDOU-3 G2,2020-017A,2026-06-15T16:51:51.729120,1.00272096,.00020443,2.8605,47.3098,32.0684,157.6480,0,U,45344,999,2324,0,-.141E-5,0
AEHF-6 (USA 298),2020-022B,2026-06-15T20:33:42.189120,1.00271729,.00431925,2.5511,301.1421,17.0036,32.1918,0,U,45465,999,2300,0,-.295E-5,0
BEIDOU-3 G3,2020-040A,2026-06-15T22:08:20.611392,1.00267140,.00023995,2.4433,67.4355,334.9904,304.3798,0,U,45807,999,2205,0,-.354E-5,0
APSTAR-6D,2020-045A,2026-06-14T17:09:58.191840,1.00270603,.00020997,0.0526,103.4417,344.7575,206.3375,0,U,45863,999,2183,0,-.311E-5,0
KOREASAT 116,2020-048A,2026-06-15T20:27:27.787680,1.00269545,.00007205,0.0271,291.3372,187.6453,208.2208,0,U,45920,999,2162,0,-.361E-5,0
EXPRESS 103,2020-053A,2026-06-15T18:39:05.798880,1.00269048,.00000979,0.0180,325.5852,357.1828,317.5527,0,U,45985,999,2163,0,-.279E-5,0
EXPRESS 80,2020-053B,2026-06-15T01:06:39.887136,1.00271885,.00016369,0.0196,303.9938,229.4906,186.5177,0,U,45986,999,2161,0,-.131E-5,0
BSAT-4B,2020-056A,2026-06-13T11:57:51.918912,1.00268721,.00037461,0.0192,98.5475,17.2668,75.2961,0,U,46112,999,2135,0,0,0
MEV-2,2020-056B,2026-06-15T16:28:39.209088,1.00272857,.00002983,0.0116,317.0110,255.8494,297.2601,0,U,46113,999,8053,0,-.9E-7,0
GALAXY 30 (G-30),2020-056C,2026-06-15T15:53:20.096160,1.00270817,.00020728,0.0172,10.6110,74.4375,292.2233,0,U,46114,999,2127,0,.39E-6,0
GAOFEN-13 01,2020-071A,2026-06-15T22:10:42.883680,1.00271117,.00413923,0.5185,84.8580,123.7369,146.5038,0,U,46610,999,2090,0,-.362E-5,0
TIANTONG-1 2,2020-082A,2026-06-15T22:12:35.203680,1.00269869,.00009382,0.7921,327.3638,101.5755,293.3472,0,U,46916,999,2064,0,-.354E-5,0
LUCAS (JDRS-1),2020-089A,2026-06-15T18:22:52.504608,1.00270660,.00020329,0.0073,307.7415,127.2716,195.5531,0,U,47202,999,2040,0,-.234E-5,0
SXM-7,2020-096A,2026-06-14T22:58:09.309216,1.00271395,.00036508,0.0312,98.3690,27.4675,36.8000,0,U,47240,999,742,0,-.2E-5,0
CMS-01,2020-099A,2026-06-15T20:17:58.696800,1.00270779,.00037792,0.0952,95.1690,180.8072,15.6337,0,U,47256,999,2018,0,-.163E-5,0
TURKSAT 5A,2021-001A,2026-06-15T20:03:05.770080,1.00270585,.00001432,0.0171,52.3940,206.3303,337.0955,0,U,47306,999,1995,0,.155E-5,0
TIANTONG-1 3,2021-003A,2026-06-15T22:00:13.889088,1.00270633,.00030075,1.7581,339.2097,111.2147,225.3686,0,U,47321,999,1994,0,-.153E-5,0
TJS-6,2021-010A,2026-06-15T19:02:33.550368,1.00268974,.00029152,0.2551,264.3417,225.0071,238.8596,0,U,47613,999,1979,0,.44E-6,0
SBIRS GEO-5 (USA 315),2021-042A,2026-06-15T22:03:32.730048,1.00270731,.00012486,5.1051,329.1210,121.9207,237.8511,0,U,48618,999,1875,0,-.266E-5,0
FENGYUN 4B,2021-047A,2026-06-15T22:06:43.266240,1.00277147,.00059224,0.1502,77.3608,275.1519,347.9671,0,U,48808,999,1855,0,-.33E-5,0
SXM-8,2021-049A,2026-06-15T07:31:21.596160,1.00271311,.00049899,0.0179,12.6016,18.1510,260.5396,0,U,48838,999,1856,0,-.202E-5,0
TIANLIAN 1-05,2021-063A,2026-06-15T19:59:06.152640,1.00271514,.0000478,1.5907,80.7162,324.9514,175.0229,0,U,49011,999,1806,0,.108E-5,0
STAR ONE D2,2021-069A,2026-06-15T04:10:20.243424,1.00270847,.00020579,0.0162,337.8384,134.2817,143.8251,0,U,49055,999,1792,0,0,0
